[{"OBJECT_NAME":"LUR-1","OBJECT_ID":"2024-149AQ","EPOCH":"2026-03-09T19:05:45.284064","MEAN_MOTION":15.28658648,"ECCENTRICITY":0.00027765,"INCLINATION":97.379,"RA_OF_ASC_NODE":148.4255,"ARG_OF_PERICENTER":309.1571,"MEAN_ANOMALY":50.9421,"EPHEMERIS_TYPE":0,"CLASSIFICATION_TYPE":"U","NORAD_CAT_ID":60506,"ELEMENT_SET_NO":999,"REV_AT_EPOCH":8678,"BSTAR":0.0003298462,"MEAN_MOTION_DOT":9.121e-5,"MEAN_MOTION_DDOT":0},{"OBJECT_NAME":"STARLINK-33898","OBJECT_ID":"2025-101J","EPOCH":"2026-03-09T04:21:36.497952","MEAN_MOTION":15.27592458,"ECCENTRICITY":0.00022138,"INCLINATION":43.0071,"RA_OF_ASC_NODE":1.1709,"ARG_OF_PERICENTER":260.0031,"MEAN_ANOMALY":100.0571,"EPHEMERIS_TYPE":0,"CLASSIFICATION_TYPE":"U","NORAD_CAT_ID":64002,"ELEMENT_SET_NO":999,"REV_AT_EPOCH":4697,"BSTAR":0.0013008936,"MEAN_MOTION_DOT":0.00035724,"MEAN_MOTION_DDOT":0}]
